     2.100          NAVIGATION                              RINEX VERSION / TYPE
fic2rin                                 04/11/2009 01:34:43 PGM / RUN BY / DATE
                                                            END OF HEADER
28 09  4 10 12  0  0.0 -.239391811192D-04 -.113686837722D-12  .000000000000D+00
     .520000000000D+02  .208750000000D+02  .497556439509D-08  .104885301465D+00
     .107102096081D-05  .148400529288D-01  .481121242046D-05  .515363241768D+04
     .475200000000D+06 -.149011611938D-06 -.158542136899D+01  .182539224625D-06
     .965760065040D+00  .293093750000D+03 -.203280090234D+01 -.851285459456D-08
     .287511976028D-09  .100000000000D+01  .152600000000D+04  .000000000000D+00
     .240000000000D+01  .000000000000D+00 -.107102096081D-07  .520000000000D+02
     .468006000000D+06  .400000000000D+01
29 09  4 10 12  0  0.0  .806525349617D-05  .420641299570D-11  .000000000000D+00
     .200000000000D+02 -.381562500000D+02  .475269796895D-08  .220105456751D+01
    -.206567347050D-05  .339362048544D-02  .926107168198D-05  .515370424461D+04
     .475200000000D+06  .800937414169D-07 -.542931949969D+00 -.540167093277D-07
     .960058024373D+00  .203093750000D+03 -.133722872952D+01 -.798390399022D-08
    -.633954978198D-09  .100000000000D+01  .152600000000D+04  .000000000000D+00
     .240000000000D+01  .000000000000D+00 -.884756445885D-08  .200000000000D+02
     .468006000000D+06  .400000000000D+01
30 09  4 10 12  0  0.0  .138274393976D-03  .261479726760D-11  .000000000000D+00
     .850000000000D+02  .253750000000D+02  .528807741251D-08  .567454013332D+00
     .116601586342D-05  .112587780459D-01  .488571822643D-05  .515360498238D+04
     .475200000000D+06 -.106170773506D-06 -.165758126471D+01 -.372529029846D-08
     .951127036773D+00  .279593750000D+03  .141426748921D+01 -.865928926558D-08
     .359300680601D-09  .100000000000D+01  .152600000000D+04  .000000000000D+00
     .240000000000D+01  .000000000000D+00 -.791624188423D-08  .850000000000D+02
     .468006000000D+06  .400000000000D+01
31 09  4 10 12  0  0.0 -.573038123548D-04 -.102318153949D-11  .000000000000D+00
     .190000000000D+02 -.180937500000D+02  .385051753237D-08  .299594525669D+01
    -.830739736557D-06  .716051377822D-02  .122468918562D-04  .515368927193D+04
     .475200000000D+06  .912696123123D-07 -.266465897418D+01  .484287738800D-07
     .972421837021D+00  .148343750000D+03 -.115495018429D+01 -.749995526038D-08
     .472876840076D-09  .100000000000D+01  .152600000000D+04  .000000000000D+00
     .240000000000D+01  .000000000000D+00 -.130385160446D-07  .190000000000D+02
     .468006000000D+06  .400000000000D+01
32 09  4 10 12  0  0.0  .276458449662D-03 -.488853402203D-11  .000000000000D+00
     .102000000000D+03  .414375000000D+02  .460733477113D-08 -.239567534442D+01
     .223703682423D-05  .133820009651D-01  .102259218693D-05  .515359585381D+04
     .475200000000D+06  .931322574615D-07  .161170992788D+01  .214204192162D-06
     .964299616367D+00  .359406250000D+03 -.117842380060D+01 -.822319967213D-08
     .200008331150D-10  .100000000000D+01  .152600000000D+04  .000000000000D+00
     .240000000000D+01  .000000000000D+00 -.325962901115D-08  .102000000000D+03
     .468006000000D+06  .400000000000D+01
 6 09  4 10 11 59 44.0  .739414244890D-04  .173940861714D-10  .000000000000D+00
     .000000000000D+00 -.510312500000D+02  .545772733625D-08  .732971168814D+00
    -.272877514362D-05  .590159813873D-02  .830367207527D-05  .515370446777D+04
     .475184000000D+06 -.689178705215D-07 -.613062937766D+00 -.838190317154D-07
     .933818600516D+00  .208000000000D+03 -.140713822859D+01 -.853142679674D-08
    -.573952478853D-09  .100000000000D+01  .152600000000D+04  .000000000000D+00
     .240000000000D+01  .000000000000D+00 -.465661287308D-08  .000000000000D+00
     .468726000000D+06  .400000000000D+01
 9 09  4 10 11 59 44.0  .500059686601D-04  .204636307899D-11  .000000000000D+00
     .900000000000D+01 -.300625000000D+02  .369086802518D-08  .217796397388D+01
    -.154785811901D-05  .203186885919D-01  .128671526909D-04  .515364484596D+04
     .475184000000D+06  .318512320518D-06 -.269664665521D+01 -.167638063431D-06
     .975987888556D+00  .135093750000D+03  .146720776323D+01 -.727244578370D-08
     .510021244432D-09  .100000000000D+01  .152600000000D+04  .000000000000D+00
     .240000000000D+01  .000000000000D+00 -.558793544769D-08  .900000000000D+01
     .468966000000D+06  .400000000000D+01
16 09  4 10 11 59 44.0  .605848617852D-04 -.306954461848D-11  .000000000000D+00
     .300000000000D+01  .172812500000D+02  .480912889095D-08  .709298523965D+00
     .951811671257D-06  .528436154127D-02  .474415719509D-05  .515378692055D+04
     .475184000000D+06  .987201929092D-07 -.159367197680D+01 -.558793544769D-07
     .967569775165D+00  .290062500000D+03 -.370431294636D+00 -.822534261854D-08
     .343942898031D-09  .100000000000D+01  .152600000000D+04  .000000000000D+00
     .240000000000D+01  .000000000000D+00 -.977888703346D-08  .300000000000D+01
     .472716000000D+06  .400000000000D+01
 6 09  4 10 13 59 44.0  .740662217140D-04  .173940861714D-10  .000000000000D+00
     .210000000000D+02 -.520937500000D+02  .536093759028D-08  .178306487112D+01
    -.280328094959D-05  .590175436810D-02  .798702239990D-05  .515370536232D+04
     .482384000000D+06  .132247805595D-06 -.613123815639D+00 -.128522515297D-06
     .933815440613D+00  .211000000000D+03 -.140706362562D+01 -.832534678411D-08
    -.559666169485D-09  .100000000000D+01  .152600000000D+04  .000000000000D+00
     .240000000000D+01  .000000000000D+00 -.465661287308D-08  .210000000000D+02
     .475206000000D+06  .400000000000D+01
 9 09  4 10 13 59 44.0  .500204041600D-04  .204636307899D-11  .000000000000D+00
     .120000000000D+02 -.216250000000D+02  .359157817508D-08 -.305506392676D+01
    -.114925205708D-05  .203180930112D-01  .127162784338D-04  .515364633369D+04
     .482384000000D+06  .163912773132D-06 -.269669783247D+01 -.223517417908D-07
     .975991422966D+00  .136875000000D+03  .146724122602D+01 -.716351267477D-08
     .421446126351D-09  .100000000000D+01  .152600000000D+04  .000000000000D+00
     .240000000000D+01  .000000000000D+00 -.558793544769D-08  .120000000000D+02
     .475206000000D+06  .400000000000D+01
16 09  4 10 13 59 44.0  .605625100434D-04 -.306954461848D-11  .000000000000D+00
     .400000000000D+01  .205625000000D+02  .474841207614D-08  .175932716446D+01
     .108778476715D-05  .528450799175D-02  .478699803352D-05  .515378781128D+04
     .482384000000D+06  .447034835815D-07 -.159373052863D+01  .316649675369D-07
     .967572266514D+00  .289375000000D+03 -.370346882800D+00 -.815605401810D-08
     .293583657509D-09  .100000000000D+01  .152600000000D+04  .000000000000D+00
     .240000000000D+01  .000000000000D+00 -.977888703346D-08  .400000000000D+01
     .475206000000D+06  .400000000000D+01
 1 09  4 10 14  0  0.0 -.901748426259D-04  .125055521494D-10  .000000000000D+00
     .500000000000D+02  .249687500000D+02  .492699094323D-08  .218953588410D+01
     .141188502312D-05  .322299590334D-02  .472739338875D-05  .515376750374D+04
     .482400000000D+06 -.186264514923D-07 -.162242005500D+01 -.782310962677D-07
     .959962981511D+00  .287218750000D+03  .900822892855D+00 -.827284459718D-08
     .432875173846D-09  .100000000000D+01  .152600000000D+04  .000000000000D+00
     .240000000000D+01  .630000000000D+02 -.116415321827D-07  .500000000000D+02
     .475206000000D+06  .400000000000D+01
 2 09  4 10 14  0  0.0  .153638888150D-03 -.227373675443D-12  .000000000000D+00
     .760000000000D+02  .850625000000D+02  .487163149443D-08 -.344475324323D+00
     .446103513241D-05  .903439975809D-02  .105947256088D-04  .515364607430D+04
     .482400000000D+06  .800937414169D-07  .466362368585D+00 -.109896063805D-06
     .942017994488D+00  .168687500000D+03  .277423162609D+01 -.821069915143D-08
     .807176479283D-10  .100000000000D+01  .152600000000D+04  .000000000000D+00
     .240000000000D+01  .000000000000D+00 -.172294676304D-07  .760000000000D+02
     .475206000000D+06  .400000000000D+01
 3 09  4 10 14  0  0.0  .377623364329D-03  .534328137292D-11  .000000000000D+00
     .180000000000D+02 -.468437500000D+02  .567916513145D-08 -.702747038452D+00
    -.223703682423D-05  .117738118861D-01  .735372304916D-05  .515374190331D+04
     .482400000000D+06  .577419996262D-07 -.680326007795D+00  .186264514923D-06
     .926258705090D+00  .219968750000D+03  .895644761188D+00 -.869857661635D-08
    -.503235247482D-09  .100000000000D+01  .152600000000D+04  .000000000000D+00
     .240000000000D+01  .000000000000D+00 -.419095158577D-08  .180000000000D+02
     .475206000000D+06  .400000000000D+01
 4 09  4 10 14  0  0.0 -.462653115392D-04 -.147792889038D-10  .000000000000D+00
     .970000000000D+02  .915312500000D+02  .480484299814D-08  .250940541495D+01
     .466592609882D-05  .860575167462D-02  .109095126390D-04  .515372727394D+04
     .482400000000D+06 -.186264514923D-06  .484785729820D+00 -.987201929092D-07
     .941229215392D+00  .159906250000D+03  .482301444763D+00 -.799711882638D-08
     .714315468392D-10  .100000000000D+01  .152600000000D+04  .000000000000D+00
     .340000000000D+01  .000000000000D+00 -.605359673500D-08  .970000000000D+02
     .475206000000D+06  .400000000000D+01
 5 09  4 10 14  0  0.0 -.304407440126D-04 -.118234311230D-10  .000000000000D+00
     .290000000000D+02  .316250000000D+02  .515235747351D-08  .216348478169D+01
     .158511102200D-05  .950085499790D-02  .495463609695D-05  .515357795715D+04
     .482400000000D+06  .128522515297D-06 -.171133081477D+01 -.167638063431D-06
     .945275286921D+00  .275312500000D+03  .129930894932D+01 -.830106005819D-08
     .501806616545D-09  .100000000000D+01  .152600000000D+04  .000000000000D+00
     .340000000000D+01  .630000000000D+02 -.419095158577D-08  .290000000000D+02
     .475206000000D+06  .400000000000D+01
